[{"OBJECT_NAME":"STARLINK-34945","OBJECT_ID":"2025-175M","EPOCH":"2026-03-09T15:31:15.623040","MEAN_MOTION":15.05654082,"ECCENTRICITY":0.0002954,"INCLINATION":97.6009,"RA_OF_ASC_NODE":302.6097,"ARG_OF_PERICENTER":93.254,"MEAN_ANOMALY":266.9025,"EPHEMERIS_TYPE":0,"CLASSIFICATION_TYPE":"U","NORAD_CAT_ID":65185,"ELEMENT_SET_NO":999,"REV_AT_EPOCH":3263,"BSTAR":0.00050854,"MEAN_MOTION_DOT":7.286e-5,"MEAN_MOTION_DDOT":0},{"OBJECT_NAME":"SL-24 R\/B","OBJECT_ID":"2014-070F","EPOCH":"2026-03-09T19:25:54.271488","MEAN_MOTION":13.15221204,"ECCENTRICITY":0.09488935,"INCLINATION":97.1704,"RA_OF_ASC_NODE":356.0555,"ARG_OF_PERICENTER":79.027,"MEAN_ANOMALY":291.5995,"EPHEMERIS_TYPE":0,"CLASSIFICATION_TYPE":"U","NORAD_CAT_ID":40303,"ELEMENT_SET_NO":999,"REV_AT_EPOCH":54356,"BSTAR":0.00013695568,"MEAN_MOTION_DOT":5.82e-6,"MEAN_MOTION_DDOT":0}]
